OBJECT_NAME,OBJECT_ID,EPOCH,MEAN_MOTION,ECCENTRICITY,INCLINATION,RA_OF_ASC_NODE,ARG_OF_PERICENTER,MEAN_ANOMALY,EPHEMERIS_TYPE,CLASSIFICATION_TYPE,NORAD_CAT_ID,ELEMENT_SET_NO,REV_AT_EPOCH,BSTAR,MEAN_MOTION_DOT,MEAN_MOTION_DDOT
KUIPER-00383,2026-118B,2026-06-26T04:00:01.998720,15.34325557,.0010606,51.8599,10.3029,219.7958,273.3774,0,U,69268,999,479,-.32303E-3,-.11287E-3,0
KUIPER-00527,2026-118C,2026-06-25T13:11:01.025952,15.34837978,.0009512,51.8627,13.1997,202.6781,157.3785,0,U,69269,999,526,.8791E-3,.29925E-3,0
KUIPER-00562,2026-118D,2026-06-25T13:25:38.076672,15.38854748,.0001319,51.8720,12.5412,134.3702,225.7394,0,U,69270,999,527,.98221E-3,.38146E-3,0
KUIPER-00570,2026-118E,2026-06-23T03:25:50.427264,15.35254459,.00090509,51.8587,24.8191,241.2053,118.8024,0,U,69271,999,489,.13187335E-1,.489113E-2,0
KUIPER-00572,2026-118F,2026-06-25T23:27:50.815872,15.37219610,.000696,51.8673,10.8406,205.1458,154.9191,0,U,69272,999,533,.77082E-3,.28271E-3,0
KUIPER-00581,2026-118G,2026-06-25T23:36:32.626080,15.36852558,.0008778,51.8659,10.8745,208.0231,152.0284,0,U,69273,999,542,.48309E-3,.17342E-3,0
KUIPER-00584,2026-118H,2026-06-26T04:00:01.998720,15.25875304,.0011969,51.8679,10.4230,229.1745,188.7038,0,U,69274,999,395,-.48702E-1,-.1155018E-1,0
KUIPER-00587,2026-118J,2026-06-25T22:02:05.417664,15.36789382,.000789,51.8644,11.1810,213.7807,146.2678,0,U,69275,999,532,.82657E-3,.29934E-3,0
KUIPER-00590,2026-118K,2026-06-25T16:50:57.183072,15.38121883,.0003831,51.8686,11.9984,192.3737,167.7157,0,U,69276,999,529,.45646E-3,.17048E-3,0
KUIPER-00592,2026-118L,2026-06-26T00:33:37.578240,15.38332360,.0003206,51.8710,10.4038,168.5513,191.5547,0,U,69277,999,534,.76696E-3,.2916E-3,0
KUIPER-00593,2026-118M,2026-06-25T16:47:15.431424,15.38282786,.0003635,51.8706,11.9818,193.0540,167.0353,0,U,69278,999,535,.93735E-3,.35701E-3,0
KUIPER-00594,2026-118N,2026-06-25T13:24:09.509760,15.38750643,.0001339,51.8696,12.5386,75.9017,284.2119,0,U,69279,999,527,.12054E-2,.46798E-3,0
KUIPER-00595,2026-118P,2026-06-25T22:49:14.508768,15.38744618,.0001314,51.8747,10.6706,243.6259,116.4593,0,U,69280,999,536,.81155E-3,.31307E-3,0
KUIPER-00596,2026-118Q,2026-06-25T13:17:53.979072,15.33478797,.0010571,51.8633,13.2337,209.6685,150.3701,0,U,69281,999,526,.11582E-2,.37919E-3,0
KUIPER-00597,2026-118R,2026-06-25T20:18:02.818944,15.37238447,.0006819,51.8649,11.4522,205.3437,154.7215,0,U,69282,999,531,.74604E-3,.27362E-3,0
KUIPER-00599,2026-118S,2026-06-25T23:18:49.195008,15.37474018,.0005845,51.8697,10.8015,204.8170,155.2537,0,U,69283,999,533,.87452E-3,.32406E-3,0
KUIPER-00600,2026-118T,2026-06-25T22:00:39.606048,15.36877398,.0008465,51.8652,11.1765,206.5447,153.5106,0,U,69284,999,532,.74223E-3,.2691E-3,0
KUIPER-00601,2026-118U,2026-06-25T20:04:11.974944,15.37803805,.0004613,51.8679,11.3968,189.7634,170.3264,0,U,69285,999,531,.87984E-3,.32956E-3,0
KUIPER-00602,2026-118V,2026-06-25T22:58:07.722048,15.38411750,.0002575,51.8723,10.7088,193.6004,166.4915,0,U,69286,999,533,.10205E-2,.39081E-3,0
KUIPER-00603,2026-118W,2026-06-25T20:06:17.032032,15.37794073,.0005204,51.8650,11.4026,196.5436,163.5382,0,U,69287,999,531,.79061E-3,.29553E-3,0
KUIPER-00605,2026-118X,2026-06-25T20:18:48.582432,15.37272240,.0007254,51.8663,11.4568,201.6481,158.4200,0,U,69288,999,531,.88315E-3,.32525E-3,0
KUIPER-00606,2026-118Y,2026-06-25T16:54:30.019968,15.37902193,.0004382,51.8696,12.0131,191.2128,168.8761,0,U,69289,999,529,.63637E-3,.23774E-3,0
KUIPER-00607,2026-118Z,2026-06-25T20:09:09.412128,15.37590896,.0005623,51.8659,11.4169,197.9606,162.1183,0,U,69290,999,531,.95466E-3,.35561E-3,0
KUIPER-00608,2026-118AA,2026-06-25T22:25:56.017632,15.35003362,.0008052,51.8624,11.2820,216.1119,143.9323,0,U,69291,999,532,.86794E-3,.29686E-3,0
KUIPER-00610,2026-118AB,2026-06-25T08:53:04.214688,15.38405394,.0001983,51.8710,13.5262,168.9948,191.1083,0,U,69292,999,524,.13516E-2,.51965E-3,0
KUIPER-00613,2026-118AC,2026-06-25T19:30:58.987008,15.34518557,.0011048,51.8584,11.9593,215.7234,144.3013,0,U,69293,999,530,.8162E-3,.27477E-3,0
KUIPER-00618,2026-118AD,2026-06-26T03:27:36.936000,15.37242883,.0001631,51.8717,9.7140,140.8671,219.2433,0,U,69294,999,536,-.10038E-2,-.37399E-3,0
KUIPER-00620,2026-118AE,2026-06-25T16:39:39.059712,15.38320809,.0001329,51.8710,11.9470,148.7220,211.3846,0,U,69295,999,529,.82388E-3,.31348E-3,0
STARLINK-37501,2026-119A,2026-06-26T00:04:59.452032,15.41745672,.0001003,97.2858,202.9089,43.7320,316.4007,0,U,69296,999,540,-.10168E-1,-.407364E-2,0
STARLINK-37496,2026-119B,2026-06-26T04:00:01.998720,15.49188109,.0001022,97.2856,203.0881,97.1864,126.2779,0,U,69297,999,532,.14983E-4,.724E-5,0
